start=new Date('2022-09-19T00:00:00.000Z').valueOf();
sats=[{"MEAN_MOTION_DOT":"-0.01064768","NORAD_CAT_ID":"52874","RCS_SIZE":"LARGE","MEAN_ANOMALY":"333.1563","TLE_LINE2":"2 52874  53.2174 305.9447 0001489  42.1522 333.1563 15.27081774  1300","LAUNCH_DATE":"2022-06-17","OBJECT_TYPE":"PAYLOAD","EPHEMERIS_TYPE":"0","DECAY_DATE":null,"PERIAPSIS":"483.522","ARG_OF_PERICENTER":"42.1522","MEAN_ELEMENT_THEORY":"SGP4","TLE_LINE1":"1 52874U 22062AW  22261.91667824 -.01064768  00000-0 -43156-1 0  9998","CENTER_NAME":"EARTH","BSTAR":"-0.04315600000000","MEAN_MOTION_DDOT":"0.0000000000000","PERIOD":"94.298","APOAPSIS":"485.565","ELEMENT_SET_NO":"999","TIME_SYSTEM":"UTC","OBJECT_NAME":"STARLINK-4210","GP_ID":"212967566","INCLINATION":"53.2174","REF_FRAME":"TEME","REV_AT_EPOCH":"130","CLASSIFICATION_TYPE":"U","MEAN_MOTION":"15.27081774","EPOCH":"2022-09-18T22:00:00.999936","COUNTRY_CODE":"US","FILE":"3577422","SEMIMAJOR_AXIS":"6862.678","ECCENTRICITY":"0.00014890","SITE":"AFETR","OBJECT_ID":"2022-062AW","RA_OF_ASC_NODE":"305.9447"},{"OBJECT_TYPE":"PAYLOAD","LAUNCH_DATE":"2022-06-17","TLE_LINE2":"2 52875  53.2175 305.9724 0001496  44.1484  16.0064 15.28262522  1303","MEAN_ANOMALY":"16.0064","RCS_SIZE":"LARGE","NORAD_CAT_ID":"52875","MEAN_MOTION_DOT":"-0.01064705","TLE_LINE1":"1 52875U 22062AX  22261.91667824 -.01064705  00000-0 -41618-1 0  9991","MEAN_ELEMENT_THEORY":"SGP4","ARG_OF_PERICENTER":"44.1484","PERIAPSIS":"479.982","DECAY_DATE":null,"EPHEMERIS_TYPE":"0","CLASSIFICATION_TYPE":"U","MEAN_MOTION":"15.28262522","REV_AT_EPOCH":"130","REF_FRAME":"TEME","INCLINATION":"53.2175","GP_ID":"212968290","OBJECT_NAME":"STARLINK-4193","PERIOD":"94.225","APOAPSIS":"482.034","TIME_SYSTEM":"UTC","ELEMENT_SET_NO":"999","MEAN_MOTION_DDOT":"0.0000000000000","BSTAR":"-0.04161800000000","CENTER_NAME":"EARTH","RA_OF_ASC_NODE":"305.9724","SITE":"AFETR","OBJECT_ID":"2022-062AX","ECCENTRICITY":"0.00014960","SEMIMAJOR_AXIS":"6859.143","FILE":"3577422","COUNTRY_CODE":"US","EPOCH":"2022-09-18T22:00:00.999936"},{"MEAN_ELEMENT_THEORY":"SGP4","TLE_LINE1":"1 52876U 22062AY  22261.91667824 -.01064844  00000-0 -42384-1 0  9997","EPHEMERIS_TYPE":"0","DECAY_DATE":null,"PERIAPSIS":"481.594","ARG_OF_PERICENTER":"33.7646","RCS_SIZE":"LARGE","MEAN_ANOMALY":"4.2425","TLE_LINE2":"2 52876  53.2175 305.9586 0001722  33.7646   4.2425 15.27672162  1300","LAUNCH_DATE":"2022-06-17","OBJECT_TYPE":"PAYLOAD","MEAN_MOTION_DOT":"-0.01064844","NORAD_CAT_ID":"52876","ECCENTRICITY":"0.00017220","RA_OF_ASC_NODE":"305.9586","SITE":"AFETR","OBJECT_ID":"2022-062AY","EPOCH":"2022-09-18T22:00:00.999936","COUNTRY_CODE":"US","FILE":"3577422","SEMIMAJOR_AXIS":"6860.910","GP_ID":"212967418","INCLINATION":"53.2175","REF_FRAME":"TEME","REV_AT_EPOCH":"130","MEAN_MOTION":"15.27672162","CLASSIFICATION_TYPE":"U","CENTER_NAME":"EARTH","BSTAR":"-0.04238400000000","MEAN_MOTION_DDOT":"0.0000000000000","PERIOD":"94.261","APOAPSIS":"483.957","TIME_SYSTEM":"UTC","ELEMENT_SET_NO":"999","OBJECT_NAME":"STARLINK-4200"},{"REV_AT_EPOCH":"130","REF_FRAME":"TEME","INCLINATION":"53.2175","GP_ID":"212968137","CLASSIFICATION_TYPE":"U","MEAN_MOTION":"15.30393594","MEAN_MOTION_DDOT":"0.0000000000000","BSTAR":"-0.03892700000000","CENTER_NAME":"EARTH","OBJECT_NAME":"STARLINK-4214","ELEMENT_SET_NO":"999","APOAPSIS":"475.809","PERIOD":"94.093","TIME_SYSTEM":"UTC","ECCENTRICITY":"0.00017070","RA_OF_ASC_NODE":"306.0214","SITE":"AFETR","OBJECT_ID":"2022-062AZ","EPOCH":"2022-09-18T22:00:00.999936","SEMIMAJOR_AXIS":"6852.774","FILE":"3577422","COUNTRY_CODE":"US","MEAN_ANOMALY":"89.8963","RCS_SIZE":"LARGE","OBJECT_TYPE":"PAYLOAD","LAUNCH_DATE":"2022-06-17","TLE_LINE2":"2 52877  53.2175 306.0214 0001707  41.2293  89.8963 15.30393594  1305","MEAN_MOTION_DOT":"-0.01063966","NORAD_CAT_ID":"52877","MEAN_ELEMENT_THEORY":"SGP4","TLE_LINE1":"1 52877U 22062AZ  22261.91667824 -.01063966  00000-0 -38927-1 0  9990","EPHEMERIS_TYPE":"0","ARG_OF_PERICENTER":"41.2293","PERIAPSIS":"473.469","DECAY_DATE":null},{"ECCENTRICITY":"0.00017660","OBJECT_ID":"2022-062BA","SITE":"AFETR","RA_OF_ASC_NODE":"305.9789","EPOCH":"2022-09-18T22:00:00.999936","SEMIMAJOR_AXIS":"6858.260","FILE":"3577422","COUNTRY_CODE":"US","REV_AT_EPOCH":"130","REF_FRAME":"TEME","INCLINATION":"53.2176","GP_ID":"212967982","CLASSIFICATION_TYPE":"U","MEAN_MOTION":"15.28557634","MEAN_MOTION_DDOT":"0.0000000000000","BSTAR":"-0.04123500000000","CENTER_NAME":"EARTH","OBJECT_NAME":"STARLINK-4171","PERIOD":"94.206","APOAPSIS":"481.336","TIME_SYSTEM":"UTC","ELEMENT_SET_NO":"999","MEAN_ELEMENT_THEORY":"SGP4","TLE_LINE1":"1 52878U 22062BA  22261.91667824 -.01064613  00000-0 -41235-1 0  9997","EPHEMERIS_TYPE":"0","ARG_OF_PERICENTER":"34.2712","PERIAPSIS":"478.914","DECAY_DATE":null,"MEAN_ANOMALY":"36.7510","RCS_SIZE":"LARGE","OBJECT_TYPE":"PAYLOAD","LAUNCH_DATE":"2022-06-17","TLE_LINE2":"2 52878  53.2176 305.9789 0001766  34.2712  36.7510 15.28557634  1308","MEAN_MOTION_DOT":"-0.01064613","NORAD_CAT_ID":"52878"},{"ECCENTRICITY":"0.00016390","OBJECT_ID":"2022-062BB","SITE":"AFETR","RA_OF_ASC_NODE":"306.0393","EPOCH":"2022-09-18T22:00:00.999936","FILE":"3577422","SEMIMAJOR_AXIS":"6850.131","COUNTRY_CODE":"US","REF_FRAME":"TEME","REV_AT_EPOCH":"130","GP_ID":"212968500","INCLINATION":"53.2175","MEAN_MOTION":"15.31279313","CLASSIFICATION_TYPE":"U","MEAN_MOTION_DDOT":"0.0000000000000","CENTER_NAME":"EARTH","BSTAR":"-0.03786200000000","OBJECT_NAME":"STARLINK-4139","PERIOD":"94.039","APOAPSIS":"473.119","ELEMENT_SET_NO":"999","TIME_SYSTEM":"UTC","MEAN_ELEMENT_THEORY":"SGP4","TLE_LINE1":"1 52879U 22062BB  22261.91667824 -.01063920  00000-0 -37862-1 0  9999","EPHEMERIS_TYPE":"0","ARG_OF_PERICENTER":"46.2887","DECAY_DATE":null,"PERIAPSIS":"470.874","MEAN_ANOMALY":"114.0435","RCS_SIZE":"LARGE","OBJECT_TYPE":"PAYLOAD","TLE_LINE2":"2 52879  53.2175 306.0393 0001639  46.2887 114.0435 15.31279313  1301","LAUNCH_DATE":"2022-06-17","MEAN_MOTION_DOT":"-0.01063920","NORAD_CAT_ID":"52879"},{"MEAN_MOTION_DDOT":"0.0000000000000","CENTER_NAME":"EARTH","BSTAR":"-0.03821300000000","OBJECT_NAME":"STARLINK-4186","PERIOD":"94.057","APOAPSIS":"474.032","TIME_SYSTEM":"UTC","ELEMENT_SET_NO":"999","REF_FRAME":"TEME","REV_AT_EPOCH":"130","GP_ID":"212967833","INCLINATION":"53.2175","CLASSIFICATION_TYPE":"U","MEAN_MOTION":"15.30984049","EPOCH":"2022-09-18T22:00:00.999936","FILE":"3577422","SEMIMAJOR_AXIS":"6851.012","COUNTRY_CODE":"US","ECCENTRICITY":"0.00016860","SITE":"AFETR","OBJECT_ID":"2022-062BC","RA_OF_ASC_NODE":"306.0332","MEAN_MOTION_DOT":"-0.01063905","NORAD_CAT_ID":"52880","MEAN_ANOMALY":"107.2081","RCS_SIZE":"LARGE","OBJECT_TYPE":"PAYLOAD","TLE_LINE2":"2 52880  53.2175 306.0332 0001686  43.5262 107.2081 15.30984049  1304","LAUNCH_DATE":"2022-06-17","EPHEMERIS_TYPE":"0","ARG_OF_PERICENTER":"43.5262","DECAY_DATE":null,"PERIAPSIS":"471.722","MEAN_ELEMENT_THEORY":"SGP4","TLE_LINE1":"1 52880U 22062BC  22261.91667824 -.01063905  00000-0 -38213-1 0  9995"},{"MEAN_MOTION_DOT":"-0.01063897","NORAD_CAT_ID":"52881","RCS_SIZE":"LARGE","MEAN_ANOMALY":"99.4665","TLE_LINE2":"2 52881  53.2175 306.0275 0001717  41.5324  99.4665 15.30688802  1301","LAUNCH_DATE":"2022-06-17","OBJECT_TYPE":"PAYLOAD","EPHEMERIS_TYPE":"0","DECAY_DATE":null,"PERIAPSIS":"472.582","ARG_OF_PERICENTER":"41.5324","MEAN_ELEMENT_THEORY":"SGP4","TLE_LINE1":"1 52881U 22062BD  22261.91667824 -.01063897  00000-0 -38567-1 0  9998","CENTER_NAME":"EARTH","BSTAR":"-0.03856700000000","MEAN_MOTION_DDOT":"0.0000000000000","APOAPSIS":"474.934","TIME_SYSTEM":"UTC","PERIOD":"94.075","ELEMENT_SET_NO":"999","OBJECT_NAME":"STARLINK-4192","GP_ID":"212967723","INCLINATION":"53.2175","REF_FRAME":"TEME","REV_AT_EPOCH":"130","MEAN_MOTION":"15.30688802","CLASSIFICATION_TYPE":"U","EPOCH":"2022-09-18T22:00:00.999936","COUNTRY_CODE":"US","FILE":"3577422","SEMIMAJOR_AXIS":"6851.893","ECCENTRICITY":"0.00017170","RA_OF_ASC_NODE":"306.0275","SITE":"AFETR","OBJECT_ID":"2022-062BD"},{"PERIAPSIS":"469.933","DECAY_DATE":null,"ARG_OF_PERICENTER":"42.6143","EPHEMERIS_TYPE":"0","TLE_LINE1":"1 52882U 22062BE  22261.91667824 -.01063922  00000-0 -37512-1 0  9997","MEAN_ELEMENT_THEORY":"SGP4","NORAD_CAT_ID":"52882","MEAN_MOTION_DOT":"-0.01063922","LAUNCH_DATE":"2022-06-17","TLE_LINE2":"2 52882  53.2175 306.0449 0001727  42.6143 127.1781 15.31574554  1304","OBJECT_TYPE":"PAYLOAD","RCS_SIZE":"LARGE","MEAN_ANOMALY":"127.1781","COUNTRY_CODE":"US","SEMIMAJOR_AXIS":"6849.251","FILE":"3577422","EPOCH":"2022-09-18T22:00:00.999936","SITE":"AFETR","RA_OF_ASC_NODE":"306.0449","OBJECT_ID":"2022-062BE","ECCENTRICITY":"0.00017270","APOAPSIS":"472.299","ELEMENT_SET_NO":"999","PERIOD":"94.021","TIME_SYSTEM":"UTC","OBJECT_NAME":"STARLINK-4181","BSTAR":"-0.03751200000000","CENTER_NAME":"EARTH","MEAN_MOTION_DDOT":"0.0000000000000","CLASSIFICATION_TYPE":"U","MEAN_MOTION":"15.31574554","INCLINATION":"53.2175","GP_ID":"212967567","REV_AT_EPOCH":"130","REF_FRAME":"TEME"},{"INCLINATION":"53.2147","GP_ID":"212968148","REV_AT_EPOCH":"130","REF_FRAME":"TEME","MEAN_MOTION":"15.08854937","CLASSIFICATION_TYPE":"U","BSTAR":"0.00014173000000","CENTER_NAME":"EARTH","MEAN_MOTION_DDOT":"0.0000000000000","ELEMENT_SET_NO":"999","APOAPSIS":"541.069","PERIOD":"95.437","TIME_SYSTEM":"UTC","OBJECT_NAME":"STARLINK-4260","ECCENTRICITY":"0.00019800","RA_OF_ASC_NODE":"25.3949","SITE":"AFETR","OBJECT_ID":"2022-076A","EPOCH":"2022-09-18T22:00:00.999936","COUNTRY_CODE":"US","SEMIMAJOR_AXIS":"6917.835","FILE":"3577422","RCS_SIZE":"LARGE","MEAN_ANOMALY":"171.7348","LAUNCH_DATE":"2022-07-07","TLE_LINE2":"2 52986  53.2147  25.3949 0001980  46.8011 171.7348 15.08854937  1309","OBJECT_TYPE":"PAYLOAD","MEAN_MOTION_DOT":"0.00001969","NORAD_CAT_ID":"52986","MEAN_ELEMENT_THEORY":"SGP4","TLE_LINE1":"1 52986U 22076A   22261.91667824  .00001969  00000-0  14173-3 0  9997","EPHEMERIS_TYPE":"0","PERIAPSIS":"538.330","DECAY_DATE":null,"ARG_OF_PERICENTER":"46.8011"}];
